{
   "type": "FeatureCollection",
   "features": [
  {
    "type": "Feature",
    "geometry": {
       "type": "Point",
       "coordinates":  [ -74.013379,40.712743 ]
    },
    "properties": {
    "BuildingName":"TWO World Trade Center",
    "Address":"285 Fulton St, New York, NY 10007",
    "Number of Floors":94,
    "Owner of Building":"Port Authority of New York and New Jersey (managed with The Durst Organization)",
    "Image":"https://upload.wikimedia.org/wikipedia/commons/thumb/1/14/One_World_Trade_Center_Building_%282021%29.jpg/330px-One_World_Trade_Center_Building_%282021%29.jpg"
    }
  },
  {
    "type": "Feature",
    "geometry": {
       "type": "Point",
       "coordinates":  [ -73.9819,40.7651 ]
    },
    "properties": {
    "BuildingName":"Central Park Tower",
    "Address":"225 W 57th St, New York, NY 10019",
    "Number of Floors":98,
    "Owner of Building":"Extell Development Company (with Shanghai Municipal Investment Group)",
    "Image":"https://upload.wikimedia.org/wikipedia/commons/thumb/8/81/Central_Park_Tower_April_2021.jpg/330px-Central_Park_Tower_April_2021.jpg"
    }
  },
  {
    "type": "Feature",
    "geometry": {
       "type": "Point",
       "coordinates":  [ -73.9796,40.7649 ]
    },
    "properties": {
    "BuildingName":"111 West 57th Street (Steinway Tower)",
    "Address":"111 W 57th St, New York, NY 10019",
    "Number of Floors":84,
    "Owner of Building":"JDS Development Group & Property Markets Group (condominium)",
    "Image":"https://upload.wikimedia.org/wikipedia/commons/thumb/e/e4/05_23_2022_Supertall_Building_111_West_57th_Street_from_Roof_NYC.jpg/330px-05_23_2022_Supertall_Building_111_West_57th_Street_from_Roof_NYC.jpg"
    }
  },
  {
    "type": "Feature",
    "geometry": {
       "type": "Point",
       "coordinates":  [ -73.9772,40.7527 ]
    },
    "properties": {
    "BuildingName":"One Vanderbilt",
    "Address":"1 Vanderbilt Ave, New York, NY 10017",
    "Number of Floors":59,
    "Owner of Building":"SL Green Realty (with partners: NPS, Hines, Mori Building)",
    "Image":"https://upload.wikimedia.org/wikipedia/commons/thumb/0/00/One_Vanderbilt_April_2023.jpg/330px-One_Vanderbilt_April_2023.jpg"
    }
  },
  {
    "type": "Feature",
    "geometry": {
       "type": "Point",
       "coordinates":  [ -73.9718,40.7616 ]
    },
    "properties": {
    "BuildingName":"432 Park Avenue",
    "Address":"432 Park Ave, New York, NY 10022",
    "Number of Floors":85,
    "Owner of Building":"CIM Group & Macklowe Properties (condominium association)",
    "Image":"https://upload.wikimedia.org/wikipedia/commons/thumb/1/10/432_Park_Avenue%2C_NY_%28cropped%292.jpg/330px-432_Park_Avenue%2C_NY_%28cropped%292.jpg"
    }
  },
  {
    "type": "Feature",
    "geometry": {
       "type": "Point",
       "coordinates":  [ -73.973,40.754 ]
    },
    "properties": {
    "BuildingName":"270 Park Avenue (JPMorgan Chase HQ)",
    "Address":"270 Park Ave, New York, NY 10017",
    "Number of Floors":70,
    "Owner of Building":"JPMorgan Chase & Co.",
    "Image":"https://upload.wikimedia.org/wikipedia/commons/thumb/c/c9/270parkave_from_empirestate_03_14_2025.jpg/330px-270parkave_from_empirestate_03_14_2025.jpg"
    }
  },
  {
    "type": "Feature",
    "geometry": {
       "type": "Point",
       "coordinates":  [ -74.0008,40.7541 ]
    },
    "properties": {
    "BuildingName":"30 Hudson Yards",
    "Address":"500 W 33rd St, New York, NY 10001",
    "Number of Floors":103,
    "Owner of Building":"Related Companies & Oxford Properties",
    "Image":"https://upload.wikimedia.org/wikipedia/commons/thumb/b/bb/Hudson_Yards_from_Hudson_Commons_%2895131p%29_%2830_Hudson_Yards%29.jpg/330px-Hudson_Yards_from_Hudson_Commons_%2895131p%29_%2830_Hudson_Yards%29.jpg"
    }
  },
  {
    "type": "Feature",
    "geometry": {
       "type": "Point",
       "coordinates":  [ -73.985428,40.748817 ]
    },
    "properties": {
    "BuildingName":"Empire State Building",
    "Address":"350 5th Ave, New York, NY 10118",
    "Number of Floors":102,
    "Owner of Building":"Empire State Realty Trust",
    "Image":"https://upload.wikimedia.org/wikipedia/commons/thumb/c/c7/View_of_Empire_State_Building_from_Rockefeller_Center_New_York_City_dllu_%28cropped2%29.jpg/250px-View_of_Empire_State_Building_from_Rockefeller_Center_New_York_City_dllu_%28cropped2%29.jpg"
    }
  },
  {
    "type": "Feature",
    "geometry": {
       "type": "Point",
       "coordinates":  [ -73.9846,40.7542 ]
    },
    "properties": {
    "BuildingName":"Bank of America Tower (One Bryant Park)",
    "Address":"1111 Avenue of the Americas, New York, NY 10036",
    "Number of Floors":55,
    "Owner of Building":"The Durst Organization (Bank of America is anchor tenant)",
    "Image":"https://upload.wikimedia.org/wikipedia/commons/thumb/e/e7/Bank_of_America_Tower_in_Manhattan_2015.jpg/330px-Bank_of_America_Tower_in_Manhattan_2015.jpg"
    }
  },
  {
    "type": "Feature",
    "geometry": {
       "type": "Point",
       "coordinates":  [ -74.011608,40.710923 ]
    },
    "properties": {
    "BuildingName":"3 World Trade Center",
    "Address":"175 Greenwich St, New York, NY 10007",
    "Number of Floors":80,
    "Owner of Building":"Port Authority of New York and New Jersey (developer: Silverstein Properties)",
    "Image":"https://upload.wikimedia.org/wikipedia/commons/thumb/d/dc/3_World_Trade_Center_078.jpg/500px-3_World_Trade_Center_078.jpg"
    }
  },
  {
    "type": "Feature",
    "geometry": {
       "type": "Point",
       "coordinates":  [ -73.9864,40.6938 ]
    },
    "properties": {
    "BuildingName":"The Brooklyn Tower (9 DeKalb)",
    "Address":"9 DeKalb Ave, Brooklyn, NY 11201",
    "Number of Floors":74,
    "Owner of Building":"JDS Development Group (recent control of portions by Silverstein Properties reported)",
    "Image":"https://upload.wikimedia.org/wikipedia/commons/thumb/d/d3/The_Brooklyn_Tower_from_Albee_Square%2C_Brooklyn%2C_NYC.jpg/500px-The_Brooklyn_Tower_from_Albee_Square%2C_Brooklyn%2C_NYC.jpg"
    }
  },
  {
    "type": "Feature",
    "geometry": {
       "type": "Point",
       "coordinates":  [ -73.9777,40.7619 ]
    },
    "properties": {
    "BuildingName":"53W53 (53 West 53rd Street)",
    "Address":"53 W 53rd St, New York, NY 10019",
    "Number of Floors":77,
    "Owner of Building":"Condominium; sponsor: Hines & Pontiac Land Group",
    "Image":"https://upload.wikimedia.org/wikipedia/commons/thumb/c/ca/53w53Aug9.jpg/330px-53w53Aug9.jpg"
    }
  },
  {
    "type": "Feature",
    "geometry": {
       "type": "Point",
       "coordinates":  [ -73.9755,40.7516 ]
    },
    "properties": {
    "Building Name":"Chrysler Building",
    "Address":"405 Lexington Ave, New York, NY 10174",
    "Number of Floors":77,
    "Owner of Building":"RFR Holding & SIGNA Group (leasehold); land owned by Cooper Union",
    "Image":"https://upload.wikimedia.org/wikipedia/commons/thumb/7/76/Chrysler_Building_by_David_Shankbone_Retouched.jpg/250px-Chrysler_Building_by_David_Shankbone_Retouched.jpg"
    }
  },
  {
    "type": "Feature",
    "geometry": {
       "type": "Point",
       "coordinates":  [ -73.98,40.7645 ]
    },
    "properties": {
    "Building Name":"One57",
    "Address":"157 W 57th St, New York, NY 10019",
    "Number of Floors":73,
    "Owner of Building":"Extell Development Company (condominium)",
    "Image":"https://upload.wikimedia.org/wikipedia/commons/thumb/9/9a/One57_from_Columbus_Circle%2C_May_2014.png/330px-One57_from_Columbus_Circle%2C_May_2014.png"
    }
  },
  {
    "type": "Feature",
    "geometry": {
       "type": "Point",
       "coordinates":  [ -74.00766,40.70643 ]
    },
    "properties": {
    "Building Name":"70 Pine Street",
    "Address":"70 Pine St, New York, NY 10005",
    "Number of Floors":67,
    "Owner of Building":"Eastbridge Group & AG Real Estate (DTH Capital)",
    "Image":"https://upload.wikimedia.org/wikipedia/commons/thumb/5/5f/American_International_Building3_%28cropped%29.JPG/330px-American_International_Building3_%28cropped%29.JPG"
    }
  }
]
}
